BRO-1                   
1 44495U 19054A   26068.68663194  .00081046  00000+0  76002-3 0  9996
2 44495  44.9993 153.3787 0008796 331.8221  28.2200 15.66250354364048
STARLINK-11250 [DTC]    
1 60910U 24154H   26068.43740364  .00001081  00000+0  13784-4 0  9991
2 60910  53.1594 132.5901 0001264  85.6071 274.5092 15.69710870 88476
