[{"OBJECT_NAME":"BRO-1","OBJECT_ID":"2019-054A","EPOCH":"2026-03-09T16:28:44.999616","MEAN_MOTION":15.66250354,"ECCENTRICITY":0.0008796,"INCLINATION":44.9993,"RA_OF_ASC_NODE":153.3787,"ARG_OF_PERICENTER":331.8221,"MEAN_ANOMALY":28.22,"EPHEMERIS_TYPE":0,"CLASSIFICATION_TYPE":"U","NORAD_CAT_ID":44495,"ELEMENT_SET_NO":999,"REV_AT_EPOCH":36404,"BSTAR":0.00076001799,"MEAN_MOTION_DOT":0.00081046,"MEAN_MOTION_DDOT":0},{"OBJECT_NAME":"STARLINK-11250 [DTC]","OBJECT_ID":"2024-154H","EPOCH":"2026-03-09T10:29:51.674496","MEAN_MOTION":15.6971087,"ECCENTRICITY":0.00012644,"INCLINATION":53.1594,"RA_OF_ASC_NODE":132.5901,"ARG_OF_PERICENTER":85.6071,"MEAN_ANOMALY":274.5092,"EPHEMERIS_TYPE":0,"CLASSIFICATION_TYPE":"U","NORAD_CAT_ID":60910,"ELEMENT_SET_NO":999,"REV_AT_EPOCH":8847,"BSTAR":1.3784388e-5,"MEAN_MOTION_DOT":1.081e-5,"MEAN_MOTION_DDOT":0}]
